NORAD_CAT_ID,OBJECT_NAME,OBJECT_TYPE,EPOCH,MEAN_MOTION,ECCENTRICITY,INCLINATION,RA_OF_ASC_NODE,ARG_OF_PERICENTER,MEAN_ANOMALY,BSTAR,MEAN_MOTION_DOT,MEAN_MOTION_DDOT,TLE_LINE0,TLE_LINE1,TLE_LINE2,SEMIMAJOR_AXIS,PERIOD,APOGEE,PERIGEE,DECAYED
55942.0,STARLINK-5917,PAYLOAD,2023-04-19 08:17:16,15.69929285,0.0003218,70.0009,89.4708,263.2408,96.8421,2.7612e-05,3.109e-05,0.0,0 STARLINK-5917,1 55942U 23037AE  23109.34532697  .00003109  00000-0  27612-4 0  9999,2 55942  70.0009  89.4708 0003218 263.2408  96.8421 15.69929285  5302,6737.236,91.724,361.269,356.933,0.0
55942.0,STARLINK-5917,PAYLOAD,2023-04-20 08:45:18,15.69936289,0.000418,70.0024,86.6056,278.1689,81.9032,7.5762e-05,8.912e-05,0.0,0 STARLINK-5917,1 55942U 23037AE  23110.36479467  .00008912  00000-0  75762-4 0  9994,2 55942  70.0024  86.6056 0004180 278.1689  81.9032 15.69936289  5461,6737.216,91.723,361.897,356.265,0.0
55942.0,STARLINK-5917,PAYLOAD,2023-04-21 06:09:50,15.69932143,0.0003174,70.0006,84.0928,268.2142,91.869,4.0773e-05,4.694e-05,0.0,0 STARLINK-5917,1 55942U 23037AE  23111.25682941  .00004694  00000-0  40773-4 0  9993,2 55942  70.0006  84.0928 0003174 268.2142  91.8690 15.69932143  5608,6737.228,91.724,361.232,356.955,0.0
55942.0,STARLINK-5917,PAYLOAD,2023-04-21 21:27:21,15.69929424,0.0003198,70.0009,82.302,277.7944,82.2888,1.6106e-05,1.725e-05,0.0,0 STARLINK-5917,1 55942U 23037AE  23111.89399767  .00001725  00000-0  16106-4 0  9999,2 55942  70.0009  82.3020 0003198 277.7944  82.2888 15.69929424  5708,6737.236,91.724,361.255,356.946,0.0
55942.0,STARLINK-5917,PAYLOAD,2023-04-22 20:23:38,15.69921443,0.0002642,70.0025,79.6204,263.6527,96.4368,-9.6882e-07,-3.29e-06,0.0,0 STARLINK-5917,1 55942U 23037AE  23112.84975329 -.00000329  00000-0 -96882-6 0  9991,2 55942  70.0025  79.6204 0002642 263.6527  96.4368 15.69921443  6190,6737.259,91.724,360.904,357.344,0.0
55942.0,STARLINK-5917,PAYLOAD,2023-04-23 00:58:54,15.69913484,0.0003301,70.0027,79.0813,260.505,99.5772,-8.3716e-06,-1.219e-05,0.0,0 STARLINK-5917,1 55942U 23037AE  23113.04090748 -.00001219  00000-0 -83716-5 0  9997,2 55942  70.0027  79.0813 0003301 260.5050  99.5772 15.69913484  6225,6737.282,91.725,361.37,356.923,0.0
55942.0,STARLINK-5917,PAYLOAD,2023-04-23 07:05:54,15.69930871,0.0003232,70.0013,78.3624,270.2797,89.8028,2.8831e-05,3.256e-05,0.0,0 STARLINK-5917,1 55942U 23037AE  23113.29576673  .00003256  00000-0  28831-4 0  9997,2 55942  70.0013  78.3624 0003232 270.2797  89.8028 15.69930871  6260,6737.232,91.724,361.274,356.919,0.0
55942.0,STARLINK-5917,PAYLOAD,2023-04-23 20:51:40,15.69937626,0.000305,70.0027,76.7513,259.9559,100.1292,4.0173e-05,4.623e-05,0.0,0 STARLINK-5917,1 55942U 23037AE  23113.86921605  .00004623  00000-0  40173-4 0  9991,2 55942  70.0027  76.7513 0003050 259.9559 100.1292 15.69937626  6010,6737.212,91.723,361.132,357.023,0.0
55942.0,STARLINK-5917,PAYLOAD,2023-04-24 07:33:55,15.69962456,0.000349,70.0026,75.4972,269.2119,90.8677,0.00010526,0.00012483,0.0,0 STARLINK-5917,1 55942U 23037AE  23114.31522072  .00012483  00000-0  10526-3 0  9998,2 55942  70.0026  75.4972 0003490 269.2119  90.8677 15.69962456  6424,6737.141,91.722,361.358,356.655,0.0
55942.0,STARLINK-5917,PAYLOAD,2023-04-25 03:26:43,15.69877517,0.0003272,70.0031,73.1703,273.0623,87.0198,-0.00015319,-0.00018556,0.0,0 STARLINK-5917,1 55942U 23037AE  23115.14356162 -.00018556  00000-0 -15319-3 0  9999,2 55942  70.0031  73.1703 0003272 273.0623  87.0198 15.69877517  6551,6737.384,91.727,361.454,357.045,0.0
55942.0,STARLINK-5917,PAYLOAD,2023-04-25 06:30:14,15.69877071,0.0003191,70.003,72.8115,273.399,86.684,-0.00014389,-0.00017444,0.0,0 STARLINK-5917,1 55942U 23037AE  23115.27099844 -.00017444  00000-0 -14389-3 0  9995,2 55942  70.0030  72.8115 0003191 273.3990  86.6840 15.69877071  6232,6737.386,91.727,361.401,357.101,0.0
55942.0,STARLINK-5917,PAYLOAD,2023-04-26 06:58:16,15.69937205,0.0002521,70.004,69.9463,254.401,105.6907,9.3768e-05,0.00011082,0.0,0 STARLINK-5917,1 55942U 23037AE  23116.29046376  .00011082  00000-0  93768-4 0  9999,2 55942  70.0040  69.9463 0002521 254.4010 105.6907 15.69937205  6394,6737.214,91.723,360.777,357.38,0.0
55942.0,STARLINK-5917,PAYLOAD,2023-04-26 14:37:01,15.69949086,0.0003169,70.0041,69.0501,279.7792,80.3046,0.00013949,0.0001661,0.0,0 STARLINK-5917,1 55942U 23037AE  23116.60904023  .00016610  00000-0  13949-3 0  9990,2 55942  70.0041  69.0501 0003169 279.7792  80.3046 15.69949086  6444,6737.18,91.723,361.18,356.91,0.0
55942.0,STARLINK-5917,PAYLOAD,2023-04-27 02:51:02,15.69929682,0.0003472,70.0028,67.6174,271.1844,88.8954,4.5103e-05,5.215e-05,0.0,0 STARLINK-5917,1 55942U 23037AE  23117.11877547  .00005215  00000-0  45103-4 0  9994,2 55942  70.0028  67.6174 0003472 271.1844  88.8954 15.69929682  6867,6737.235,91.724,361.439,356.761,0.0
55942.0,STARLINK-5917,PAYLOAD,2023-04-27 07:26:17,15.69931015,0.0003386,70.002,67.0785,267.6689,92.4119,3.7604e-05,4.312e-05,0.0,0 STARLINK-5917,1 55942U 23037AE  23117.30992436  .00004312  00000-0  37604-4 0  9994,2 55942  70.0020  67.0785 0003386 267.6689  92.4119 15.69931015  6555,6737.231,91.724,361.378,356.815,0.0
55942.0,STARLINK-5917,PAYLOAD,2023-04-28 06:22:34,15.69912577,0.0002667,70.0023,64.3931,262.3403,97.749,-4.5639e-05,-5.693e-05,0.0,0 STARLINK-5917,1 55942U 23037AE  23118.26568186 -.00005693  00000-0 -45639-4 0  9993,2 55942  70.0023  64.3931 0002667 262.3403  97.7490 15.69912577  7045,6737.284,91.725,360.946,357.352,0.0
55942.0,STARLINK-5917,PAYLOAD,2023-04-28 20:08:20,15.69927139,0.0003477,70.0014,62.7793,268.0683,92.0114,1.3507e-05,1.412e-05,0.0,0 STARLINK-5917,1 55942U 23037AE  23118.83912198  .00001412  00000-0  13507-4 0  9994,2 55942  70.0014  62.7793 0003477 268.0683  92.0114 15.69927139  7137,6737.242,91.724,361.45,356.765,0.0
55942.0,STARLINK-5917,PAYLOAD,2023-04-29 06:50:36,15.69924694,0.0003452,70.0011,61.5257,267.6795,92.4006,1.2005e-05,1.231e-05,0.0,0 STARLINK-5917,1 55942U 23037AE  23119.28513989  .00001231  00000-0  12005-4 0  9990,2 55942  70.0011  61.5257 0003452 267.6795  92.4006 15.69924694  6864,6737.249,91.724,361.44,356.789,0.0
55942.0,STARLINK-5917,PAYLOAD,2023-04-29 23:39:52,15.69922746,0.0003381,70.0013,59.5547,264.5796,95.5014,8.6844e-06,8.32e-06,0.0,0 STARLINK-5917,1 55942U 23037AE  23119.98602477  .00000832  00000-0  86844-5 0  9997,2 55942  70.0013  59.5547 0003381 264.5796  95.5014 15.69922746  7313,6737.255,91.724,361.398,356.842,0.0
55942.0,STARLINK-5917,PAYLOAD,2023-05-01 04:43:10,15.69917809,0.0002616,70.0024,56.1545,239.1336,120.9602,1.9214e-05,2.098e-05,0.0,0 STARLINK-5917,1 55942U 23037AE  23121.19664710  .00002098  00000-0  19214-4 0  9993,2 55942  70.0024  56.1545 0002616 239.1336 120.9602 15.69917809  7505,6737.269,91.725,360.897,357.372,0.0
55942.0,STARLINK-5917,PAYLOAD,2023-05-01 21:32:26,15.6993233,0.000271,70.0018,54.1829,254.6921,105.3976,5.8973e-06,4.97e-06,0.0,0 STARLINK-5917,1 55942U 23037AE  23121.89752348  .00000497  00000-0  58973-5 0  9992,2 55942  70.0018  54.1829 0002710 254.6921 105.3976 15.69932330  7279,6737.228,91.724,360.918,357.267,0.0
55942.0,STARLINK-5917,PAYLOAD,2023-05-02 05:11:12,15.69920771,0.0002992,70.0004,53.2843,276.1921,83.8933,8.673e-06,8.3e-06,0.0,0 STARLINK-5917,1 55942U 23037AE  23122.21611530  .00000830  00000-0  86730-5 0  9999,2 55942  70.0004  53.2843 0002992 276.1921  83.8933 15.69920771  7663,6737.261,91.724,361.141,357.11,0.0
55942.0,STARLINK-5917,PAYLOAD,2023-05-02 12:49:58,15.69913497,0.0003497,70.0003,52.3904,272.0158,88.0637,2.4465e-05,2.729e-05,0.0,0 STARLINK-5917,1 55942U 23037AE  23122.53470012  .00002729  00000-0  24465-4 0  9997,2 55942  70.0003  52.3904 0003497 272.0158  88.0637 15.69913497  7371,6737.281,91.725,361.503,356.79,0.0
55942.0,STARLINK-5917,PAYLOAD,2023-05-02 20:28:43,15.69919669,0.0002509,70.0015,51.4943,262.48,97.611,1.8637e-06,1.2e-07,0.0,0 STARLINK-5917,1 55942U 23037AE  23122.85328642  .00000012  00000-0  18637-5 0  9991,2 55942  70.0015  51.4943 0002509 262.4800  97.6110 15.69919669  7422,6737.264,91.724,360.819,357.438,0.0
55942.0,STARLINK-5917,PAYLOAD,2023-05-03 04:07:29,15.69919151,0.0003051,70.0009,50.5993,253.3257,106.7604,1.0705e-07,-2e-06,0.0,0 STARLINK-5917,1 55942U 23037AE  23123.17187016 -.00000200  00000-0  10705-6 0  9994,2 55942  70.0009  50.5993 0003051 253.3257 106.7604 15.69919151  7479,6737.265,91.724,361.186,357.075,0.0
55942.0,STARLINK-5917,PAYLOAD,2023-05-03 20:56:44,15.69930959,0.0003714,69.9999,48.6282,260.326,99.7516,1.3488e-05,1.41e-05,0.0,0 STARLINK-5917,1 55942U 23037AE  23123.87274270  .00001410  00000-0  13488-4 0  9992,2 55942  69.9999  48.6282 0003714 260.3260  99.7516 15.69930959  7585,6737.232,91.724,361.599,356.594,0.0
55942.0,STARLINK-5917,PAYLOAD,2023-05-04 03:03:44,15.69956494,0.0003238,70.0004,47.9119,251.8174,108.267,-4.0829e-05,-5.126e-05,0.0,0 STARLINK-5917,1 55942U 23037AE  23124.12760076 -.00005126  00000-0 -40829-4 0  9994,2 55942  70.0004  47.9119 0003238 251.8174 108.2670 15.69956494  7967,6737.158,91.722,361.205,356.842,0.0
55942.0,STARLINK-5917,PAYLOAD,2023-05-04 04:35:30,15.69925189,0.0003308,70.0001,47.7318,251.4223,108.6614,7.0196e-06,6.31e-06,0.0,0 STARLINK-5917,1 55942U 23037AE  23124.19133037  .00000631  00000-0  70196-5 0  9997,2 55942  70.0001  47.7318 0003308 251.4223 108.6614 15.69925189  7972,6737.248,91.724,361.342,356.884,0.0
55942.0,STARLINK-5917,PAYLOAD,2023-05-04 21:24:47,15.69919049,0.0003471,69.9998,45.7615,255.99,104.0909,3.0729e-05,3.483e-05,0.0,0 STARLINK-5917,1 55942U 23037AE  23124.89221514  .00003483  00000-0  30729-4 0  9997,2 55942  69.9998  45.7615 0003471 255.9900 104.0909 15.69919049  7744,6737.266,91.724,361.469,356.792,0.0
55942.0,STARLINK-5917,PAYLOAD,2023-05-05 05:03:33,15.69925151,0.0003361,70.0004,44.8682,257.0977,102.9843,1.9435e-05,2.125e-05,0.0,0 STARLINK-5917,1 55942U 23037AE  23125.21079880  .00002125  00000-0  19435-4 0  9994,2 55942  70.0004  44.8682 0003361 257.0977 102.9843 15.69925151  8133,6737.248,91.724,361.378,356.849,0.0
